{
  "norad_id": 61637,
  "name": "STARLINK-32419",
  "history": [
    {
      "epoch": "2026-03-28T06:05:23.950752Z",
      "apogee_km": 483.48917391809937,
      "perigee_km": 482.66445601754003,
      "latitude_deg": -1.2470507349803526e-05,
      "longitude_deg": 132.7977493762274,
      "height_km": 482.98108660387385,
      "semi_major_axis_km": 6861.213814967819,
      "eccentricity": 6.01e-05,
      "inclination_deg": 43.0014,
      "raan_deg": 49.8244,
      "arg_perigee_deg": 251.8923,
      "mean_anomaly_deg": 108.1863,
      "mean_motion_rev_day": 15.27570743
    },
    {
      "epoch": "2026-03-29T04:03:34.642944Z",
      "apogee_km": 483.44257776138784,
      "perigee_km": 482.65491363778256,
      "latitude_deg": -4.7977619986623155e-05,
      "longitude_deg": 157.18099958667688,
      "height_km": 482.95730193954796,
      "semi_major_axis_km": 6861.185745699585,
      "eccentricity": 5.74e-05,
      "inclination_deg": 43.0011,
      "raan_deg": 44.6545,
      "arg_perigee_deg": 250.3389,
      "mean_anomaly_deg": 109.74,
      "mean_motion_rev_day": 15.27580117
    },
    {
      "epoch": "2026-03-30T03:35:55.407840Z",
      "apogee_km": 483.2695667523449,
      "perigee_km": 482.8112401017961,
      "latitude_deg": 2.0649869457993634e-05,
      "longitude_deg": 157.59103642385196,
      "height_km": 483.0116750710854,
      "semi_major_axis_km": 6861.17740342707,
      "eccentricity": 3.34e-05,
      "inclination_deg": 43.002,
      "raan_deg": 39.1177,
      "arg_perigee_deg": 211.4513,
      "mean_anomaly_deg": 148.6319,
      "mean_motion_rev_day": 15.27582903
    },
    {
      "epoch": "2026-03-30T05:10:04.975104Z",
      "apogee_km": 483.45449174333316,
      "perigee_km": 482.6426762650344,
      "latitude_deg": 2.338649245271037e-05,
      "longitude_deg": 133.61842596073726,
      "height_km": 482.9745769259141,
      "semi_major_axis_km": 6861.1855840041835,
      "eccentricity": 5.916e-05,
      "inclination_deg": 43.0026,
      "raan_deg": 38.7494,
      "arg_perigee_deg": 248.3462,
      "mean_anomaly_deg": 111.7327,
      "mean_motion_rev_day": 15.27580171
    },
    {
      "epoch": "2026-03-30T13:00:52.460640Z",
      "apogee_km": 483.45858456996484,
      "perigee_km": 482.68395415635405,
      "latitude_deg": 1.901924074128526e-05,
      "longitude_deg": 13.75002000232917,
      "height_km": 482.93758753629083,
      "semi_major_axis_km": 6861.208269363159,
      "eccentricity": 5.645e-05,
      "inclination_deg": 43.0011,
      "raan_deg": 36.9011,
      "arg_perigee_deg": 256.5235,
      "mean_anomaly_deg": 103.5554,
      "mean_motion_rev_day": 15.27572595
    }
  ]
}